QIANKUN-1               
1 57422U 23103B   26064.53441244 -.00000021  16855-5  56630-6 0  9994
2 57422  96.1968 116.3270 0030783 170.3202 189.8684 16.08514637150648
OBJECT B                
1 57425U 23104B   26064.97139825  .00311538  39692-4  83454-3 0  9996
2 57425  97.2684 153.4916 0002870 313.0843  47.0192 15.94451324147484
INTUITION-1             
1 58565U 23174CW  26064.69955030  .00424677  71211-4  12972-2 0  9990
2 58565  97.3761 160.7517 0003593 235.1056 124.9880 15.91927054130248
OBJECT B                
1 59678U 24085B   26064.99049363  .00511366  10883-3  12971-2 0  9992
2 59678  97.3360 157.0702 0009677 298.1019  61.9279 15.95396555102826
OBJECT D                
1 59813U 24095D   26064.05653770  .00589793  14037-3  17801-2 0  9995
2 59813  97.5303 167.7716 0005260 254.9341 105.1351 15.92155338100156
RUZAEVKA 390 (RS44S)    
1 61766U 24199AH  26064.93369821  .01435747  13563-2  18116-2 0  9990
2 61766  97.2817 307.0194 0002396 171.7328 188.3994 16.07881858118920
COSMOS 2591             
1 65267U 25182A   26064.73946101  .00075753  40430-5  18326-3 0  9999
2 65267  96.5938 358.0583 0007944 172.1859 187.9545 15.96401340 31193
COSMOS 2592             
1 65268U 25182B   26064.62976021  .00004342  18609-5  11848-4 0  9994
2 65268  96.5906 357.9096 0007170 168.5536 191.5907 15.96382533 31171
COSMOS 2593             
1 65269U 25182C   26064.58275646  .00023585  20678-5  58016-4 0  9992
2 65269  96.5882 357.8369 0007309 166.2302 193.9177 15.96412483 31169
COSMOS 2594             
1 65270U 25182D   26064.59843457  .00100071  56759-5  24191-3 0  9997
2 65270  96.5907 357.8208 0007039 167.7756 192.3695 15.96393620 31181
ISS OBJECT XK           
1 65731U 98067XK  26064.42288087  .01235340  97089-3  12997-2 0  9993
2 65731  51.6145  68.9863 0004832  74.1567 285.9979 16.09887648 26210
CZ-4B R/B               
1 66989U 25289B   26065.08377233  .10603572  25591-5  18295-3 0  9995
2 66989  97.4928 143.7033 0010186  27.6912 332.4932 16.47343359 13772
STARLINK-36618          
1 67847U 26033AC  26064.91668981 -.01312688  49974-3 -37069-2 0  9996
2 67847  42.9844 292.5013 0001677 277.4563 269.3055 15.92587090  4057
STARLINK-36818          
1 67879U 26035A   26064.91668981 -.01101159  37472-3 -27341-2 0  9994
2 67879  97.2761 356.9630 0001336 105.2197  71.0951 15.95904682  3152
STARLINK-36821          
1 67880U 26035B   26064.91668981 -.01105212  37786-3 -27227-2 0  9991
2 67880  97.2756 356.9663 0001313 104.0005  79.4694 15.96050997  3152
